1 45093U 20006BB  23151.60426619  .00001607  00000-0  12675-3 0  9993
2 45093  53.0535 114.5385 0001462  97.2226 262.8930 15.06396937184329
1 45093U 20006BB  23152.26774215  .00001734  00000-0  13533-3 0  9999
2 45093  53.0546 111.5604 0001572  99.3859 260.7307 15.06390966184421
1 45093U 20006BB  23153.19658727  .00006462  00000-0  45218-3 0  9999
2 45093  53.0533 107.3880 0001595 110.8410 249.2750 15.06412440184564
1 45093U 20006BB  23154.12545501  .00002073  00000-0  15801-3 0  9997
2 45093  53.0539 103.2195 0001536  90.4900 269.6265 15.06395897184705
1 45093U 20006BB  23155.12066248  .00009690  00000-0  66851-3 0  9997
2 45093  53.0541  98.7511 0001379  85.9502 274.1645 15.06402076184857
1 45093U 20006BB  23156.51394307  .00004876  00000-0  34591-3 0  9998
2 45093  53.0543  92.4979 0001354  93.0757 267.0387 15.06407261185062
1 45093U 20006BB  23156.77931937 -.00003026  00000-0 -18422-3 0  9995
2 45093  53.0546  91.3054 0001220  94.1786 265.9343 15.06427914185104
1 45093U 20006BB  23157.17739634  .00011200  00000-0  76884-3 0  9997
2 45093  53.0547  89.5191 0001336  94.4984 265.6158 15.06434873185166
1 45093U 20006BB  23157.84086990 -.00000622  00000-0 -22830-4 0  9992
2 45093  53.0552  86.5410 0001990  95.1008 265.0208 15.06407939185268
1 45093U 20006BB  23158.23895391  .00003941  00000-0  28336-3 0  9990
2 45093  53.0549  84.7542 0001109  89.0069 271.1047 15.06392823185322
1 45093U 20006BB  23159.16780789  .00022311  00000-0  15110-2 0  9994
2 45093  53.0545  80.5849 0001018  87.1770 272.9336 15.06423293185460
1 45093U 20006BB  23160.49476162  .00016394  00000-0  11170-2 0  9995
2 45093  53.0544  74.6275 0000804  64.9727 295.1345 15.06398110185661
1 45093U 20006BB  23161.15822499  .00018723  00000-0  12717-2 0  9993
2 45093  53.0545  71.6477 0001134  75.6658 284.4457 15.06423222185761
1 45093U 20006BB  23162.15343408  .00018955  00000-0  12880-2 0  9990
2 45093  53.0553  67.1817 0000941  84.5559 275.5537 15.06400591185913
1 45093U 20006BB  23162.75055036  .00016727  00000-0  11386-2 0  9998
2 45093  53.0555  64.5000 0000929  87.0585 273.0510 15.06419528186008
1 45093U 20006BB  23163.01593162  .00020544  00000-0  13928-2 0  9991
2 45093  53.0553  63.3097 0000925  89.0827 271.0268 15.06434461186041
1 45093U 20006BB  23163.81209895  .00007752  00000-0  53861-3 0  9993
2 45093  53.0552  59.7358 0001164  83.5289 276.5832 15.06407497186165
1 45093U 20006BB  23164.07749328  .00023106  00000-0  15660-2 0  9997
2 45093  53.0553  58.5450 0001393  79.2106 280.9039 15.06376809186205
1 45093U 20006BB  23164.80731122  .00015865  00000-0  10815-2 0  9991
2 45093  53.0555  55.2684 0001395  76.0381 284.0763 15.06402455186310
1 45093U 20006BB  23165.07269573  .00019144  00000-0  13001-2 0  9991
2 45093  53.0551  54.0770 0001357  83.5138 276.6005 15.06415216186359
1 45093U 20006BB  23165.66982299  .00005730  00000-0  40324-3 0  9998
2 45093  53.0550  51.3966 0001459  88.5049 271.6107 15.06398244186443
1 45093U 20006BB  23166.06790771  .00007189  00000-0  50108-3 0  9996
2 45093  53.0551  49.6094 0001422  92.4956 267.6196 15.06394878186506
1 45093U 20006BB  23166.79771986  .00015634  00000-0  10657-2 0  9991
2 45093  53.0550  46.3333 0001207  95.8897 264.2230 15.06414949186613
1 45093U 20006BB  23167.39484213  .00004666  00000-0  33185-3 0  9997
2 45093  53.0548  43.6527 0002082  86.8059 273.3168 15.06407787186700
1 45093U 20006BB  23167.66023011  .00005767  00000-0  40571-3 0  9992
2 45093  53.0550  42.4613 0001908 100.7512 259.3692 15.06404795186748
1 45093U 20006BB  23168.45639446  .00004263  00000-0  30486-3 0  9999
2 45093  53.0547  38.8863 0001371 107.0460 253.0679 15.06402820186862
1 45093U 20006BB  23168.92082070  .00018505  00000-0  12572-2 0  9995
2 45093  53.0548  36.8027 0001248  91.1777 268.9355 15.06421659186935
1 45093U 20006BB  23169.05351122  .00020092  00000-0  13628-2 0  9994
2 45093  53.0548  36.2069 0001229  91.3016 268.8113 15.06430021186958
1 45093U 20006BB  23169.71698457  .00012199  00000-0  83648-3 0  9991
2 45093  53.0548  33.2289 0000729  85.5624 274.5448 15.06397004187053
1 45093U 20006BB  23170.38045371  .00013163  00000-0  90079-3 0  9995
2 45093  53.0544  30.2500 0000881  84.4975 275.6115 15.06406136187159
1 45093U 20006BB  23170.71218399  .00015703  00000-0  10702-2 0  9990
2 45093  53.0543  28.7609 0000858  85.1178 274.9909 15.06418472187202
1 45093U 20006BB  23171.37564811  .00001533  00000-0  12172-3 0  9996
2 45093  53.0532  25.7835 0001082  91.0438 269.0675 15.06410218187309
1 45093U 20006BB  23171.84008150  .00016287  00000-0  11100-2 0  9998
2 45093  53.0537  23.6979 0000799 103.8577 256.2500 15.06391562187372
1 45093U 20006BB  23171.97277601  .00021270  00000-0  14428-2 0  9995
2 45093  53.0537  23.1022 0000797 102.3558 257.7520 15.06393116187394
1 45093U 20006BB  23172.83527658  .00016703  00000-0  11368-2 0  9996
2 45093  53.0538  19.2302 0000740 103.5610 256.5461 15.06424777187526
1 45093U 20006BB  23187.76333824  .00004231  00000-0  30270-3 0  9991
2 45093  53.0544 312.2152 0000984  61.4215 298.6873 15.06402954190122
1 45093U 20006BB  23188.16141534  .00011670  00000-0  80069-3 0  9997
2 45093  53.0546 310.4288 0001009  59.9506 300.1583 15.06416327190180
1 45093U 20006BB  23189.02391650  .00004408  00000-0  31454-3 0  9994
2 45093  53.0537 306.5563 0001120  64.7551 295.3554 15.06413832190316
1 45093U 20006BB  23189.55469985 -.00005745  00000-0 -36730-3 0  9998
2 45093  53.0540 304.1741 0000916  70.9200 289.1888 15.06380650190394
1 45093U 20006BB  23190.68261155  .00015243  00000-0  10401-2 0  9991
2 45093  53.0533 299.1105 0000832  81.2365 278.8718 15.06396807190564
1 45093U 20006BB  23191.54512223  .00007795  00000-0  54160-3 0  9996
2 45093  53.0527 295.2389 0000818  83.5236 276.5846 15.06401454190690
1 45093U 20006BB  23192.27492801  .00014363  00000-0  98050-3 0  9991
2 45093  53.0529 291.9623 0000801  78.3748 281.7331 15.06425766190800
1 45093U 20006BB  23193.00473076  .00006512  00000-0  45529-3 0  9996
2 45093  53.0531 288.6855 0000842  69.1722 290.9357 15.06428198190912
1 45093U 20006BB  23193.53550966  .00002168  00000-0  16440-3 0  9991
2 45093  53.0539 286.3030 0001099  81.0947 279.0166 15.06403141190992
1 45093U 20006BB  23194.53070672  .00019257  00000-0  13071-2 0  9996
2 45093  53.0542 281.8354 0001125  78.2611 281.8504 15.06429415191148
1 45093U 20006BB  23194.92878802  .00009371  00000-0  64691-3 0  9991
2 45093  53.0546 280.0484 0001135  94.6565 265.4554 15.06412984191201
1 45093U 20006BB  23195.39322028  .00000724  00000-0  67518-4 0  9992
2 45093  53.0544 277.9634 0001090  92.0466 268.0647 15.06395194191275
1 45093U 20006BB  23196.52111386  .00017623  00000-0  11983-2 0  9990
2 45093  53.0541 272.9001 0001046 100.1647 259.9460 15.06422785191446
1 45093U 20006BB  23197.18459026  .00006095  00000-0  42770-3 0  9999
2 45093  53.0539 269.9221 0002790  76.6325 283.4974 15.06404221191548
1 45093U 20006BB  23197.51632905 -.00002747  00000-0 -16569-3 0  9994
2 45093  53.0533 268.4324 0000968  73.8986 286.2110 15.06376698191591
1 45093U 20006BB  23198.44519837  .00018419  00000-0  12523-2 0  9991
2 45093  53.0529 264.2627 0001032  65.1160 294.9936 15.06396251191732
1 45093U 20006BB  23198.90962855  .00011543  00000-0  79256-3 0  9992
2 45093  53.0519 262.1778 0001007  64.1272 295.9821 15.06397438191800
1 45093U 20006BB  23199.44040487  .00007883  00000-0  54754-3 0  9998
2 45093  53.0525 259.7951 0001085  70.8629 289.2478 15.06399940191880
1 45093U 20006BB  23200.36924893  .00010091  00000-0  69496-3 0  9998
2 45093  53.0527 255.6250 0001134  73.1804 286.9309 15.06423080192022
1 45093U 20006BB  23202.09426750  .00007765  00000-0  53951-3 0  9992
2 45093  53.0527 247.8818 0001330  58.8052 301.3068 15.06408350192283
1 45093U 20006BB  23205.47796141  .00000079  00000-0  24190-4 0  9996
2 45093  53.0522 232.6894 0000994  76.2809 283.8291 15.06392787192449
1 45093U 20006BB  23206.34047063  .00000736  00000-0  68291-4 0  9995
2 45093  53.0535 228.8182 0001105  82.5500 277.5614 15.06398567192578
1 45093U 20006BB  23207.07028955  .00002420  00000-0  18132-3 0  9995
2 45093  53.0524 225.5418 0001004  70.9156 289.1942 15.06395246192684
1 45093U 20006BB  23207.33567654  .00002886  00000-0  21253-3 0  9992
2 45093  53.0524 224.3505 0001102  71.4894 288.6215 15.06398313192722
1 45093U 20006BB  23208.33087276  .00002838  00000-0  20932-3 0  9990
2 45093  53.0520 219.8819 0001082  76.7619 283.3490 15.06406792192879
1 45093U 20006BB  23208.33087276  .00002838  00000-0  20932-3 0  9990
2 45093  53.0520 219.8819 0001082  76.7619 283.3490 15.06406792193229
1 45093U 20006BB  23209.06069405  .00000054  00000-0  22508-4 0  9995
2 45093  53.0530 216.6090 0001234  83.9290 276.1840 15.06394695193339
1 45093U 20006BB  23209.45877935  .00000210  00000-0  32962-4 0  9992
2 45093  53.0536 214.8191 0001129  85.0990 275.0128 15.06393630193043
1 45093U 20006BB  23210.38763100  .00000579  00000-0  57770-4 0  9996
2 45093  53.0532 210.6496 0001137  86.8399 273.2720 15.06400022193538
1 45093U 20006BB  23211.38283884  .00001395  00000-0  11252-3 0  9994
2 45093  53.0532 206.1810 0001139  86.1448 273.9671 15.06394399193685
1 45093U 20006BB  23211.97995461  .00001864  00000-0  14400-3 0  9999
2 45093  53.0535 203.4997 0001178  87.4393 272.6730 15.06403080193770
1 45093U 20006BB  23213.10785603  .00000853  00000-0  76146-4 0  9994
2 45093  53.0528 198.4362 0001181  87.8968 272.2156 15.06395949193948
1 45093U 20006BB  23214.36842989  .00001973  00000-0  15127-3 0  9999
2 45093  53.0537 192.7782 0001179  90.8872 269.2252 15.06413807194135
1 45093U 20006BB  23214.63382812 -.00000428  00000-0 -98324-5 0  9991
2 45093  53.0524 191.5851 0001561  89.6012 270.5156 15.06397408194172
1 45093U 20006BB  23216.09345064  .00001596  00000-0  12596-3 0  9991
2 45093  53.0531 185.0344 0001289 107.6425 252.4705 15.06413534194393
1 45093U 20006BB  23217.08866569  .00002349  00000-0  17658-3 0  9990
2 45093  53.0530 180.5664 0001309 104.1814 255.9320 15.06395787194541
